OBJECT_NAME,OBJECT_ID,EPOCH,MEAN_MOTION,ECCENTRICITY,INCLINATION,RA_OF_ASC_NODE,ARG_OF_PERICENTER,MEAN_ANOMALY,EPHEMERIS_TYPE,CLASSIFICATION_TYPE,NORAD_CAT_ID,ELEMENT_SET_NO,REV_AT_EPOCH,BSTAR,MEAN_MOTION_DOT,MEAN_MOTION_DDOT
ONEWEB-0053,2020-008AC,2026-07-18T19:29:15.584352,13.10375046,.0001422,87.8817,29.9801,78.4841,281.6446,0,U,45157,999,31205,.57603E-3,.214E-5,0
ONEWEB-0054,2020-008AD,2026-07-18T18:30:36.713664,13.10372592,.000185,87.8816,29.9740,87.5044,272.6295,0,U,45158,999,31216,-.36852E-3,-.116E-5,0
ONEWEB-0056,2020-008AE,2026-07-18T12:19:01.130592,13.10374317,.00020671,87.8824,30.0189,83.5180,276.6183,0,U,45159,999,31228,.1682748E-2,.6E-5,0
ONEWEB-0057,2020-008AF,2026-07-18T12:43:51.369024,13.10369569,.00014672,87.8816,30.0270,74.5313,285.5976,0,U,45160,999,31245,.10531548E-2,.38E-5,0
ONEWEB-0058,2020-008AG,2026-07-18T12:24:38.886336,13.10468681,.00018183,87.8812,30.0326,98.1878,261.9455,0,U,45161,999,31252,.32917041E-1,.11534E-3,0
ONEWEB-0059,2020-008AH,2026-07-18T06:49:35.324832,13.10374886,.0001582,87.8817,30.0794,88.2690,271.8619,0,U,45162,999,31239,.14078945E-2,.504E-5,0
ONEWEB-0062,2020-008AJ,2026-07-18T12:53:13.715520,13.10369084,.00020888,87.8818,30.0188,94.2087,265.9279,0,U,45163,999,31229,.2112713E-3,.86E-6,0
ONEWEB-0065,2020-008AK,2026-07-18T11:52:06.747456,13.10375223,.00017623,87.8823,30.0351,78.1824,281.9501,0,U,45164,999,31198,-.11833626E-2,-.4E-5,0
ONEWEB-0066,2020-020A,2026-07-18T17:36:16.655040,13.11419670,.0001742,87.8884,14.7885,95.8450,264.2877,0,U,45424,999,30681,-.73203E-3,-.247E-5,0
ONEWEB-0067,2020-020B,2026-07-18T00:11:56.226624,13.11426811,.00017089,87.8907,14.8610,86.7762,273.3561,0,U,45425,999,30677,.10255604E-2,.376E-5,0
ONEWEB-0080,2020-020C,2026-07-18T11:10:47.465760,13.11417721,.00020884,87.8898,14.8415,98.0703,262.0662,0,U,45426,999,30680,.10353772E-2,.38E-5,0
ONEWEB-0090,2020-020D,2026-07-18T10:02:24.535392,13.11415674,.00019309,87.8896,14.8552,91.7701,268.3648,0,U,45427,999,30676,.21056545E-3,.87E-6,0
ONEWEB-0061,2020-020E,2026-07-18T10:48:23.305536,13.11418599,.00018278,87.8893,14.8330,92.3513,267.7824,0,U,45428,999,30672,-.90961279E-3,-.31E-5,0
ONEWEB-0081,2020-020F,2026-07-18T17:41:12.147360,13.11415353,.000163,87.8890,14.7852,91.9706,268.1609,0,U,45429,999,30687,-.11932E-2,-.41E-5,0
ONEWEB-0069,2020-020G,2026-07-18T17:43:49.664064,13.11418089,.000165,87.8892,14.7882,94.9845,265.1471,0,U,45430,999,30680,-.12109E-2,-.416E-5,0
ONEWEB-0031,2020-020H,2026-07-18T18:34:56.955648,13.11419384,.0002009,87.8882,14.7837,94.2328,265.9029,0,U,45431,999,30679,.87791E-3,.324E-5,0
ONEWEB-0027,2020-020J,2026-07-18T04:00:32.649120,13.17651072,.00022914,87.9149,359.7024,92.4712,267.6682,0,U,45432,999,31043,-.4165245E-3,-.149E-5,0
ONEWEB-0064,2020-020K,2026-07-18T18:32:29.364576,13.11418347,.0002014,87.8889,14.7772,91.5964,268.5395,0,U,45433,999,30682,.8369E-3,.309E-5,0
ONEWEB-0018,2020-020L,2026-07-18T11:59:11.508000,13.11415209,.00016918,87.8889,14.8311,102.6637,257.4680,0,U,45434,999,30673,-.29404514E-3,-.92E-6,0
ONEWEB-0083,2020-020M,2026-07-18T11:44:57.366240,13.11415669,.00018987,87.8892,14.8286,93.4116,266.7229,0,U,45435,999,30677,.88415172E-3,.326E-5,0
ONEWEB-0095,2020-020N,2026-07-18T18:52:13.414368,13.11416423,.0002231,87.8894,14.7782,75.3827,284.7548,0,U,45436,999,30681,.15168E-2,.55E-5,0
ONEWEB-0092,2020-020P,2026-07-18T10:26:49.979616,13.11413254,.00017122,87.8893,14.8389,97.6890,262.4432,0,U,45437,999,30688,-.14335433E-2,-.495E-5,0
ONEWEB-0085,2020-020Q,2026-07-18T17:14:09.621888,13.11415635,.0001869,87.8889,14.7879,91.9217,268.2125,0,U,45438,999,30680,.11185E-2,.409E-5,0
ONEWEB-0096,2020-020R,2026-07-18T17:16:47.883360,13.11415316,.0001928,87.8893,14.7851,88.6368,271.4980,0,U,45439,999,30679,.98584E-3,.362E-5,0
ONEWEB-0037,2020-020S,2026-07-18T10:35:08.535264,13.11415625,.00019784,87.8903,14.8136,86.9189,273.2165,0,U,45440,999,30679,-.16487564E-2,-.572E-5,0
ONEWEB-0042,2020-020T,2026-07-18T18:51:49.741632,13.11417395,.0001758,87.8893,14.7685,91.1330,269.0000,0,U,45441,999,30680,.15653E-2,.568E-5,0
ONEWEB-0098,2020-020U,2026-07-18T18:45:55.213056,13.11416435,.0001907,87.8892,14.7781,93.0545,267.0801,0,U,45442,999,30678,.15326E-2,.556E-5,0
ONEWEB-0055,2020-020V,2026-07-18T18:15:11.794752,13.11418491,.0001927,87.8896,14.7813,92.2916,267.8433,0,U,45443,999,30675,-.60529E-3,-.202E-5,0
ONEWEB-0093,2020-020W,2026-07-17T23:39:19.454976,13.10894374,.00015014,87.8894,14.9328,90.8076,269.3223,0,U,45444,999,30671,-.15095799E-2,-.518E-5,0
ONEWEB-0029,2020-020X,2026-07-18T00:06:42.243840,13.11417027,.00015945,87.8885,14.9318,93.8897,266.2413,0,U,45445,999,30669,.74165728E-3,.276E-5,0
